{"fetched_at":"2026-07-15T06:35:30.786Z","source":"https://celestrak.org/NORAD/elements/gp.php?GROUP=kuiper&FORMAT=JSON","constellation":"kuiper","records":[{"OBJECT_NAME":"KUIPER-00272","OBJECT_ID":"2026-072R","EPOCH":"2026-07-14T22:45:45.555552","CLASSIFICATION_TYPE":"U","MEAN_MOTION":14.79940539,"ECCENTRICITY":0.00008615,"INCLINATION":51.8994,"RA_OF_ASC_NODE":70.3743,"ARG_OF_PERICENTER":98.6242,"MEAN_ANOMALY":261.4818,"EPHEMERIS_TYPE":0,"NORAD_CAT_ID":68588,"ELEMENT_SET_NO":999,"REV_AT_EPOCH":1526,"BSTAR":0.00025965433,"MEAN_MOTION_DOT":0.00001759,"MEAN_MOTION_DDOT":0},{"OBJECT_NAME":"KUIPER-00285","OBJECT_ID":"2026-072S","EPOCH":"2026-07-14T22:00:03.000096","CLASSIFICATION_TYPE":"U","MEAN_MOTION":14.79761725,"ECCENTRICITY":0.00026987,"INCLINATION":51.9042,"RA_OF_ASC_NODE":50.5937,"ARG_OF_PERICENTER":131.9088,"MEAN_ANOMALY":304.2712,"EPHEMERIS_TYPE":0,"NORAD_CAT_ID":68589,"ELEMENT_SET_NO":999,"REV_AT_EPOCH":552,"BSTAR":-0.00020401583,"MEAN_MOTION_DOT":-0.0000177,"MEAN_MOTION_DDOT":0},{"OBJECT_NAME":"KUIPER-00286","OBJECT_ID":"2026-072T","EPOCH":"2026-07-14T22:00:03.000096","CLASSIFICATION_TYPE":"U","MEAN_MOTION":14.81943721,"ECCENTRICITY":0.00024501,"INCLINATION":51.9016,"RA_OF_ASC_NODE":47.6751,"ARG_OF_PERICENTER":32.8463,"MEAN_ANOMALY":218.7751,"EPHEMERIS_TYPE":0,"NORAD_CAT_ID":68590,"ELEMENT_SET_NO":999,"REV_AT_EPOCH":584,"BSTAR":-0.0074381825,"MEAN_MOTION_DOT":-0.00059207,"MEAN_MOTION_DDOT":0},{"OBJECT_NAME":"KUIPER-00289","OBJECT_ID":"2026-072U","EPOCH":"2026-07-14T19:54:33.413760","CLASSIFICATION_TYPE":"U","MEAN_MOTION":14.79933553,"ECCENTRICITY":0.00007559,"INCLINATION":51.9,"RA_OF_ASC_NODE":55.9197,"ARG_OF_PERICENTER":124.6613,"MEAN_ANOMALY":235.4421,"EPHEMERIS_TYPE":0,"NORAD_CAT_ID":68591,"ELEMENT_SET_NO":999,"REV_AT_EPOCH":1545,"BSTAR":0.00024610041,"MEAN_MOTION_DOT":0.00001655,"MEAN_MOTION_DDOT":0},{"OBJECT_NAME":"KUIPER-00290","OBJECT_ID":"2026-072V","EPOCH":"2026-07-14T22:00:03.000096","CLASSIFICATION_TYPE":"U","MEAN_MOTION":14.76457353,"ECCENTRICITY":0.00009308,"INCLINATION":51.9021,"RA_OF_ASC_NODE":54.0162,"ARG_OF_PERICENTER":113.6218,"MEAN_ANOMALY":231.4134,"EPHEMERIS_TYPE":0,"NORAD_CAT_ID":68592,"ELEMENT_SET_NO":999,"REV_AT_EPOCH":483,"BSTAR":-0.00061881438,"MEAN_MOTION_DOT":-0.00004557,"MEAN_MOTION_DDOT":0},{"OBJECT_NAME":"KUIPER-00293","OBJECT_ID":"2026-072W","EPOCH":"2026-07-14T21:16:15.229632","CLASSIFICATION_TYPE":"U","MEAN_MOTION":14.79939367,"ECCENTRICITY":0.00028905,"INCLINATION":51.899,"RA_OF_ASC_NODE":65.6522,"ARG_OF_PERICENTER":129.9355,"MEAN_ANOMALY":230.1862,"EPHEMERIS_TYPE":0,"NORAD_CAT_ID":68593,"ELEMENT_SET_NO":999,"REV_AT_EPOCH":1532,"BSTAR":0.00024658716,"MEAN_MOTION_DOT":0.00001659,"MEAN_MOTION_DDOT":0},{"OBJECT_NAME":"KUIPER-00294","OBJECT_ID":"2026-072X","EPOCH":"2026-07-13T00:12:22.870656","CLASSIFICATION_TYPE":"U","MEAN_MOTION":14.79111002,"ECCENTRICITY":0.0000765,"INCLINATION":51.9005,"RA_OF_ASC_NODE":61.4667,"ARG_OF_PERICENTER":104.681,"MEAN_ANOMALY":255.4237,"EPHEMERIS_TYPE":0,"NORAD_CAT_ID":68594,"ELEMENT_SET_NO":999,"REV_AT_EPOCH":1522,"BSTAR":0.0059074792,"MEAN_MOTION_DOT":0.00044236,"MEAN_MOTION_DDOT":0},{"OBJECT_NAME":"KUIPER-00296","OBJECT_ID":"2026-072Y","EPOCH":"2026-07-14T19:53:40.324416","CLASSIFICATION_TYPE":"U","MEAN_MOTION":15.37246069,"ECCENTRICITY":0.00094126,"INCLINATION":51.8701,"RA_OF_ASC_NODE":43.1584,"ARG_OF_PERICENTER":120.6784,"MEAN_ANOMALY":239.5132,"EPHEMERIS_TYPE":0,"NORAD_CAT_ID":68595,"ELEMENT_SET_NO":999,"REV_AT_EPOCH":1563,"BSTAR":0.00041859461,"MEAN_MOTION_DOT":0.00015167,"MEAN_MOTION_DDOT":0},{"OBJECT_NAME":"KUIPER-00297","OBJECT_ID":"2026-072Z","EPOCH":"2026-07-14T19:54:42.300864","CLASSIFICATION_TYPE":"U","MEAN_MOTION":14.76357786,"ECCENTRICITY":0.00012129,"INCLINATION":51.9006,"RA_OF_ASC_NODE":65.6559,"ARG_OF_PERICENTER":135.1995,"MEAN_ANOMALY":224.9064,"EPHEMERIS_TYPE":0,"NORAD_CAT_ID":68596,"ELEMENT_SET_NO":999,"REV_AT_EPOCH":1532,"BSTAR":0.0001622584,"MEAN_MOTION_DOT":0.00000922,"MEAN_MOTION_DDOT":0},{"OBJECT_NAME":"KUIPER-00300","OBJECT_ID":"2026-072AA","EPOCH":"2026-07-14T19:43:02.180928","CLASSIFICATION_TYPE":"U","MEAN_MOTION":14.76474252,"ECCENTRICITY":0.00018912,"INCLINATION":51.9037,"RA_OF_ASC_NODE":62.75,"ARG_OF_PERICENTER":131.8379,"MEAN_ANOMALY":228.2743,"EPHEMERIS_TYPE":0,"NORAD_CAT_ID":68597,"ELEMENT_SET_NO":999,"REV_AT_EPOCH":1536,"BSTAR":0.0001820209,"MEAN_MOTION_DOT":0.00001064,"MEAN_MOTION_DDOT":0},{"OBJECT_NAME":"KUIPER-00301","OBJECT_ID":"2026-072AB","EPOCH":"2026-07-14T21:22:27.685344","CLASSIFICATION_TYPE":"U","MEAN_MOTION":15.38675004,"ECCENTRICITY":0.00128943,"INCLINATION":51.8657,"RA_OF_ASC_NODE":42.7775,"ARG_OF_PERICENTER":138.7481,"MEAN_ANOMALY":221.4483,"EPHEMERIS_TYPE":0,"NORAD_CAT_ID":68598,"ELEMENT_SET_NO":999,"REV_AT_EPOCH":1564,"BSTAR":-0.001097586,"MEAN_MOTION_DOT":-0.000429,"MEAN_MOTION_DDOT":0},{"OBJECT_NAME":"KUIPER-00304","OBJECT_ID":"2026-072AC","EPOCH":"2026-07-14T21:42:27.578304","CLASSIFICATION_TYPE":"U","MEAN_MOTION":15.38551779,"ECCENTRICITY":0.0011666,"INCLINATION":51.8669,"RA_OF_ASC_NODE":42.876,"ARG_OF_PERICENTER":124.54,"MEAN_ANOMALY":235.669,"EPHEMERIS_TYPE":0,"NORAD_CAT_ID":68599,"ELEMENT_SET_NO":999,"REV_AT_EPOCH":1564,"BSTAR":0.00027917281,"MEAN_MOTION_DOT":0.00010429,"MEAN_MOTION_DDOT":0},{"OBJECT_NAME":"KUIPER-00317","OBJECT_ID":"2026-072AD","EPOCH":"2026-07-14T22:24:18.459072","CLASSIFICATION_TYPE":"U","MEAN_MOTION":14.79934933,"ECCENTRICITY":0.00007246,"INCLINATION":51.8996,"RA_OF_ASC_NODE":52.9684,"ARG_OF_PERICENTER":108.5399,"MEAN_ANOMALY":251.5642,"EPHEMERIS_TYPE":0,"NORAD_CAT_ID":68600,"ELEMENT_SET_NO":999,"REV_AT_EPOCH":1550,"BSTAR":0.00024449307,"MEAN_MOTION_DOT":0.00001643,"MEAN_MOTION_DDOT":0},{"OBJECT_NAME":"KUIPER-00320","OBJECT_ID":"2026-072AE","EPOCH":"2026-07-14T22:16:31.074816","CLASSIFICATION_TYPE":"U","MEAN_MOTION":14.79922591,"ECCENTRICITY":0.00006943,"INCLINATION":51.9043,"RA_OF_ASC_NODE":57.9822,"ARG_OF_PERICENTER":99.1725,"MEAN_ANOMALY":260.9316,"EPHEMERIS_TYPE":0,"NORAD_CAT_ID":68601,"ELEMENT_SET_NO":999,"REV_AT_EPOCH":1543,"BSTAR":0.00014593953,"MEAN_MOTION_DOT":0.00000891,"MEAN_MOTION_DDOT":0},{"OBJECT_NAME":"KUIPER-00299","OBJECT_ID":"2026-095A","EPOCH":"2026-07-14T13:05:21.422976","CLASSIFICATION_TYPE":"U","MEAN_MOTION":14.76473876,"ECCENTRICITY":0.0001428,"INCLINATION":51.9001,"RA_OF_ASC_NODE":128.2313,"ARG_OF_PERICENTER":269.0021,"MEAN_ANOMALY":91.0776,"EPHEMERIS_TYPE":0,"NORAD_CAT_ID":68864,"ELEMENT_SET_NO":999,"REV_AT_EPOCH":1168,"BSTAR":0.00017947,"MEAN_MOTION_DOT":0.00001046,"MEAN_MOTION_DDOT":0},{"OBJECT_NAME":"KUIPER-00353","OBJECT_ID":"2026-095B","EPOCH":"2026-07-14T22:00:03.000096","CLASSIFICATION_TYPE":"U","MEAN_MOTION":14.8316529,"ECCENTRICITY":0.00026888,"INCLINATION":51.901,"RA_OF_ASC_NODE":113.0797,"ARG_OF_PERICENTER":20.6155,"MEAN_ANOMALY":214.5768,"EPHEMERIS_TYPE":0,"NORAD_CAT_ID":68865,"ELEMENT_SET_NO":999,"REV_AT_EPOCH":566,"BSTAR":-0.0094209646,"MEAN_MOTION_DOT":-0.00076964,"MEAN_MOTION_DDOT":0}]}
