KUIPER-00272            
1 68588U 26072R   26195.94844393  .00001759  00000+0  25965-3 0  9990
2 68588  51.8994  70.3743 0000861  98.6242 261.4818 14.79940539 15268
KUIPER-00285            
1 68589U 26072S   26195.91670139 -.00001770  00000+0 -20402-3 0  9999
2 68589  51.9042  50.5937 0002698 131.9088 304.2712 14.79761725  5523
KUIPER-00286            
1 68590U 26072T   26195.91670139 -.00059207  00000+0 -74382-2 0  9994
2 68590  51.9016  47.6751 0002450  32.8463 218.7751 14.81943721  5847
KUIPER-00289            
1 68591U 26072U   26195.82955340  .00001655  00000+0  24610-3 0  9997
2 68591  51.9000  55.9197 0000755 124.6613 235.4421 14.79933553 15457
KUIPER-00290            
1 68592U 26072V   26195.91670139 -.00004557  00000+0 -61881-3 0  9995
2 68592  51.9021  54.0162 0000930 113.6218 231.4134 14.76457353  4830
KUIPER-00293            
1 68593U 26072W   26195.88628738  .00001659  00000+0  24659-3 0  9990
2 68593  51.8990  65.6522 0002890 129.9355 230.1862 14.79939367 15325
KUIPER-00294            
1 68594U 26072X   26194.00859804  .00044236  00000+0  59075-2 0  9991
2 68594  51.9005  61.4667 0000765 104.6810 255.4237 14.79111002 15226
KUIPER-00296            
1 68595U 26072Y   26195.82893894  .00015167  00000+0  41859-3 0  9993
2 68595  51.8701  43.1584 0009412 120.6784 239.5132 15.37246069 15639
KUIPER-00297            
1 68596U 26072Z   26195.82965626  .00000922  00000+0  16226-3 0  9990
2 68596  51.9006  65.6559 0001212 135.1995 224.9064 14.76357786 15324
KUIPER-00300            
1 68597U 26072AA  26195.82155302  .00001064  00000+0  18202-3 0  9997
2 68597  51.9037  62.7500 0001891 131.8379 228.2743 14.76474252 15368
KUIPER-00301            
1 68598U 26072AB  26195.89059821 -.00042900  00000+0 -10976-2 0  9999
2 68598  51.8657  42.7775 0012894 138.7481 221.4483 15.38675004 15647
KUIPER-00304            
1 68599U 26072AC  26195.90448586  .00010429  00000+0  27917-3 0  9995
2 68599  51.8669  42.8760 0011666 124.5400 235.6690 15.38551779 15645
KUIPER-00317            
1 68600U 26072AD  26195.93354698  .00001643  00000+0  24449-3 0  9996
2 68600  51.8996  52.9684 0000724 108.5399 251.5642 14.79934933 15500
KUIPER-00320            
1 68601U 26072AE  26195.92813744  .00000891  00000+0  14594-3 0  9992
2 68601  51.9043  57.9822 0000694  99.1725 260.9316 14.79922591 15439
KUIPER-00299            
1 68864U 26095A   26195.54538684  .00001046  00000+0  17947-3 0  9991
2 68864  51.9001 128.2313 0001428 269.0021  91.0776 14.76473876 11684
KUIPER-00353            
1 68865U 26095B   26195.91670139 -.00076964  00000+0 -94210-2 0  9995
2 68865  51.9010 113.0797 0002688  20.6155 214.5768 14.83165290  5661
